SHUNTIAN                
1 44886U 19093H   26129.85795965  .00002309  00000+0  21646-3 0  9991
2 44886  97.7985 218.2218 0011672 185.2907 174.8192 14.94965232346459
ELEKTRO-L 3             
1 44903U 19095A   26129.87154193 -.00000087  00000+0  00000+0 0  9996
2 44903   0.1573  78.8248 0001357 328.8093 209.7643  1.00272110 23329
GONETS-M 14             
1 44905U 19096A   26129.89197959  .00000180  00000+0  12266-2 0  9991
2 44905  82.5202 108.3826 0012125 234.7362 125.2584 12.42869345288929
GONETS-M 15             
1 44906U 19096B   26129.84092772  .00000213  00000+0  14709-2 0  9995
2 44906  82.5221 108.8696 0013908 260.0582  99.8928 12.42870566288887
GONETS-M 16             
1 44907U 19096C   26129.86781205  .00000123  00000+0  81665-3 0  9990
2 44907  82.5168 107.8234 0010014 307.3820  52.6347 12.42890966288877
RS-44 & BREEZE-KM R/B   
1 44909U 19096E   26129.69621575  .00000007  00000+0 -12850-4 0  9999
2 44909  82.5246   5.2859 0216555 234.2335 123.8461 12.79748171297426
JILIN-1 KUANFU 01       
1 45016U 20003A   26129.79991049  .00002049  00000+0  12807-3 0  9994
2 45016  97.5035 204.5089 0011354  77.8558 282.3943 15.10507422349531
XINGYUN-2 01            
1 45602U 20028A   26129.88321823  .00001292  00000+0  79714-4 0  9999
2 45602  97.4871 123.0507 0008755 348.4715  11.6314 15.11644441329056
XINGYUN-2 02            
1 45603U 20028B   26129.85513623  .00001197  00000+0  74626-4 0  9999
2 45603  97.5088 136.5247 0012522  49.8434 310.3890 15.11380435329042
HAIYANG-1D              
1 45721U 20036A   26129.81052448  .00000078  00000+0  43241-4 0  9994
2 45721  98.4540  72.3288 0001488 265.9246  94.1769 14.34160175309477
M2 PATHFINDER           
1 45727U 20037E   26129.47388274  .00002332  00000+0  17096-3 0  9995
2 45727  97.8168 320.2722 0010398 285.5873  74.4204 15.04507366319677
GAOFEN DUOMO (GFDM)     
1 45856U 20042A   26129.85926704  .00000340  00000+0  55398-4 0  9997
2 45856  97.7763 191.1352 0010538 189.5669 170.5342 14.76825917315351
ZIYUAN 3-03 (ZY 3-03)   
1 45939U 20051A   26129.84002896  .00002509  00000+0  11460-3 0  9995
2 45939  97.2845 198.7991 0007273  85.2461 274.9606 15.21458555321513
NEMO-HD                 
1 46277U 20061F   26129.83190051  .00008042  00000+0  17939-3 0  9997
2 46277  97.1941 192.1900 0002214 126.1194 234.0260 15.43824240316060
NAPA-1                  
1 46320U 20061BA  26129.87419270  .00045158  00000+0  48955-3 0  9998
2 46320  97.2486 202.9352 0001766 142.3955 217.7428 15.63415150315747
JILIN-1 GAOFEN 3E       
1 46457U 20065D   26129.83267389  .00035399  00000+0  44538-3 0  9990
2 46457  97.2298 181.6739 0009691 300.7579  59.2723 15.59527691313775
JILIN-1 GAOFEN 3F       
1 46458U 20065E   26129.79837176  .00032366  00000+0  44162-3 0  9997
2 46458  97.2252 179.1391 0011154 288.3253  71.6789 15.57363244313724
JILIN-1 GAOFEN 3G       
1 46459U 20065F   26129.78977211  .00051250  00000+0  51587-3 0  9994
2 46459  97.2323 185.3758 0012054 182.6028 177.5171 15.65186640313921
JILIN-1 GAOFEN 3H       
1 46460U 20065G   26129.81969441  .00045320  00000+0  50271-3 0  9996
2 46460  97.2270 181.9312 0009205 127.8153 232.3940 15.62774413313883
JILIN-1 GAOFEN 3J       
1 46462U 20065J   26129.83721083  .02979846  23646-5  88973-3 0  9996
2 46462  97.2140 190.6896 0009823 253.4417 106.5798 16.26984465314391
HAIYANG-2C              
1 46469U 20066A   26129.84952959 -.00000100  00000+0 -16654-4 0  9992
2 46469  65.9982 310.7365 0010288 241.0642 118.9395 13.83371279284197
HJ-2A                   
1 46478U 20067A   26129.80971727 -.00000150  00000+0 -14295-4 0  9997
2 46478  97.8821 209.0857 0004414  47.1230 313.0350 14.76562472302595
HJ-2B                   
1 46479U 20067B   26129.84571611  .00000403  00000+0  65000-4 0  9999
2 46479  97.8884 210.1145 0001409  74.3129 285.8236 14.76507990302603
GONETS-M 17             
1 46486U 20068A   26129.89238793 -.00000073  00000+0 -60285-3 0  9998
2 46486  82.5016  11.3269 0023162 117.0270 243.3178 12.42871301254408
GONETS-M 18             
1 46487U 20068B   26129.85604014 -.00000030  00000+0 -28939-3 0  9991
2 46487  82.4969  10.4820 0020511 113.3297 246.9943 12.42870546254387
GONETS-M 19             
1 46488U 20068C   26129.83203566 -.00000045  00000+0 -39531-3 0  9993
2 46488  82.4995  10.9403 0014025 126.8595 233.3773 12.42890749254481
DEKART                  
1 46493U 20068H   26129.85778346  .00009059  00000+0  25667-3 0  9991
2 46493  97.8761 136.4110 0010813  67.7960 292.4429 15.36465630309889
