OBJECT_NAME,OBJECT_ID,EPOCH,MEAN_MOTION,ECCENTRICITY,INCLINATION,RA_OF_ASC_NODE,ARG_OF_PERICENTER,MEAN_ANOMALY,EPHEMERIS_TYPE,CLASSIFICATION_TYPE,NORAD_CAT_ID,ELEMENT_SET_NO,REV_AT_EPOCH,BSTAR,MEAN_MOTION_DOT,MEAN_MOTION_DDOT
SHUNTIAN,2019-093H,2026-05-09T20:35:27.713760,14.94965232,.0011672,97.7985,218.2218,185.2907,174.8192,0,U,44886,999,34645,.21646E-3,.2309E-4,0
ELEKTRO-L 3,2019-095A,2026-05-09T20:55:01.222752,1.00272110,.0001357,0.1573,78.8248,328.8093,209.7643,0,U,44903,999,2332,0,-.87E-6,0
GONETS-M 14,2019-096A,2026-05-09T21:24:27.036576,12.42869345,.0012125,82.5202,108.3826,234.7362,125.2584,0,U,44905,999,28892,.12266E-2,.18E-5,0
GONETS-M 15,2019-096B,2026-05-09T20:10:56.155008,12.42870566,.0013908,82.5221,108.8696,260.0582,99.8928,0,U,44906,999,28888,.14709E-2,.213E-5,0
GONETS-M 16,2019-096C,2026-05-09T20:49:38.961120,12.42890966,.0010014,82.5168,107.8234,307.3820,52.6347,0,U,44907,999,28887,.81665E-3,.123E-5,0
RS-44 & BREEZE-KM R/B,2019-096E,2026-05-09T16:42:33.040800,12.79748171,.0216555,82.5246,5.2859,234.2335,123.8461,0,U,44909,999,29742,-.1285E-4,.7E-7,0
JILIN-1 KUANFU 01,2020-003A,2026-05-09T19:11:52.266336,15.10507422,.0011354,97.5035,204.5089,77.8558,282.3943,0,U,45016,999,34953,.12807E-3,.2049E-4,0
XINGYUN-2 01,2020-028A,2026-05-09T21:11:50.055072,15.11644441,.0008755,97.4871,123.0507,348.4715,11.6314,0,U,45602,999,32905,.79714E-4,.1292E-4,0
XINGYUN-2 02,2020-028B,2026-05-09T20:31:23.770272,15.11380435,.0012522,97.5088,136.5247,49.8434,310.3890,0,U,45603,999,32904,.74626E-4,.1197E-4,0
HAIYANG-1D,2020-036A,2026-05-09T19:27:09.315072,14.34160175,.0001488,98.4540,72.3288,265.9246,94.1769,0,U,45721,999,30947,.43241E-4,.78E-6,0
M2 PATHFINDER,2020-037E,2026-05-09T11:22:23.468736,15.04507366,.0010398,97.8168,320.2722,285.5873,74.4204,0,U,45727,999,31967,.17096E-3,.2332E-4,0
GAOFEN DUOMO (GFDM),2020-042A,2026-05-09T20:37:20.672256,14.76825917,.0010538,97.7763,191.1352,189.5669,170.5342,0,U,45856,999,31535,.55398E-4,.34E-5,0
ZIYUAN 3-03 (ZY 3-03),2020-051A,2026-05-09T20:09:38.502144,15.21458555,.0007273,97.2845,198.7991,85.2461,274.9606,0,U,45939,999,32151,.1146E-3,.2509E-4,0
NEMO-HD,2020-061F,2026-05-09T19:57:56.204064,15.43824240,.0002214,97.1941,192.1900,126.1194,234.0260,0,U,46277,999,31606,.17939E-3,.8042E-4,0
NAPA-1,2020-061BA,2026-05-09T20:58:50.249280,15.63415150,.0001766,97.2486,202.9352,142.3955,217.7428,0,U,46320,999,31574,.48955E-3,.45158E-3,0
JILIN-1 GAOFEN 3E,2020-065D,2026-05-09T19:59:03.024096,15.59527691,.0009691,97.2298,181.6739,300.7579,59.2723,0,U,46457,999,31377,.44538E-3,.35399E-3,0
JILIN-1 GAOFEN 3F,2020-065E,2026-05-09T19:09:39.320064,15.57363244,.0011154,97.2252,179.1391,288.3253,71.6789,0,U,46458,999,31372,.44162E-3,.32366E-3,0
JILIN-1 GAOFEN 3G,2020-065F,2026-05-09T18:57:16.310304,15.65186640,.0012054,97.2323,185.3758,182.6028,177.5171,0,U,46459,999,31392,.51587E-3,.5125E-3,0
JILIN-1 GAOFEN 3H,2020-065G,2026-05-09T19:40:21.597024,15.62774413,.0009205,97.2270,181.9312,127.8153,232.3940,0,U,46460,999,31388,.50271E-3,.4532E-3,0
JILIN-1 GAOFEN 3J,2020-065J,2026-05-09T20:05:35.015712,16.26984465,.0009823,97.2140,190.6896,253.4417,106.5798,0,U,46462,999,31439,.88973E-3,.2979846E-1,.23646E-5
HAIYANG-2C,2020-066A,2026-05-09T20:23:19.356576,13.83371279,.0010288,65.9982,310.7365,241.0642,118.9395,0,U,46469,999,28419,-.16654E-4,-.1E-5,0
HJ-2A,2020-067A,2026-05-09T19:25:59.572128,14.76562472,.0004414,97.8821,209.0857,47.1230,313.0350,0,U,46478,999,30259,-.14295E-4,-.15E-5,0
HJ-2B,2020-067B,2026-05-09T20:17:49.871904,14.76507990,.0001409,97.8884,210.1145,74.3129,285.8236,0,U,46479,999,30260,.65E-4,.403E-5,0
GONETS-M 17,2020-068A,2026-05-09T21:25:02.317152,12.42871301,.0023162,82.5016,11.3269,117.0270,243.3178,0,U,46486,999,25440,-.60285E-3,-.73E-6,0
GONETS-M 18,2020-068B,2026-05-09T20:32:41.868096,12.42870546,.0020511,82.4969,10.4820,113.3297,246.9943,0,U,46487,999,25438,-.28939E-3,-.3E-6,0
GONETS-M 19,2020-068C,2026-05-09T19:58:07.881024,12.42890749,.0014025,82.4995,10.9403,126.8595,233.3773,0,U,46488,999,25448,-.39531E-3,-.45E-6,0
DEKART,2020-068H,2026-05-09T20:35:12.490944,15.36465630,.0010813,97.8761,136.4110,67.7960,292.4429,0,U,46493,999,30988,.25667E-3,.9059E-4,0
